OBJECT_NAME,OBJECT_ID,EPOCH,MEAN_MOTION,ECCENTRICITY,INCLINATION,RA_OF_ASC_NODE,ARG_OF_PERICENTER,MEAN_ANOMALY,EPHEMERIS_TYPE,CLASSIFICATION_TYPE,NORAD_CAT_ID,ELEMENT_SET_NO,REV_AT_EPOCH,BSTAR,MEAN_MOTION_DOT,MEAN_MOTION_DDOT
GLOBALSTAR M069,2007-020C,2026-06-11T11:26:15.501984,12.23470979,.0002461,52.0038,268.2901,136.3312,303.4603,0,U,31573,999,87810,-.40781E-4,-.97E-6,0
GLOBALSTAR M072,2007-020D,2026-06-11T15:01:23.602368,11.91658510,.0001405,51.9918,115.0504,316.4945,219.8630,0,U,31574,999,87431,-.42895E-4,-.87E-6,0
GLOBALSTAR M066,2007-048C,2026-06-11T11:55:12.160128,12.30388199,.0005392,51.9597,74.2475,31.8731,144.5385,0,U,32265,999,85952,-.40481E-3,-.142E-5,0
GLOBALSTAR M079,2010-054A,2026-06-11T04:30:46.329408,12.62266060,.00005681,52.0024,126.9316,8.8433,9.5571,0,U,37188,999,72179,.5553325E-4,-.94E-6,0
GLOBALSTAR M074,2010-054B,2026-06-11T15:28:45.498720,12.62268430,.0000422,51.9999,124.8064,46.1474,129.8319,0,U,37189,999,72245,-.20651E-4,-.107E-5,0
GLOBALSTAR M076,2010-054C,2026-06-11T16:06:53.061408,12.62261782,.000061,52.0019,124.9283,35.0599,141.4966,0,U,37190,999,72217,-.632E-4,-.115E-5,0
GLOBALSTAR M077,2010-054D,2026-06-11T09:01:40.733760,11.67547651,.0002827,51.9927,194.0459,162.1399,215.8316,0,U,37191,999,72046,.4264E-3,-.55E-6,0
GLOBALSTAR M075,2010-054E,2026-06-11T08:27:51.685056,12.62267381,.0000029,51.9918,167.9577,53.3799,53.7309,0,U,37192,999,72120,.1146E-3,-.83E-6,0
GLOBALSTAR M073,2010-054F,2026-06-11T12:38:31.149024,12.62262114,.0000817,52.0063,81.5224,37.0041,140.0917,0,U,37193,999,72321,-.73029E-4,-.117E-5,0
GLOBALSTAR M083,2011-033A,2026-06-11T09:10:44.837760,12.62262975,.000087,51.9873,30.1984,58.4936,124.0561,0,U,37739,999,69221,.26889E-4,-.99E-6,0
GLOBALSTAR M088,2011-033B,2026-06-11T15:17:14.150976,12.62268609,.0000799,52.0226,295.8394,117.9934,259.9035,0,U,37740,999,68779,.48823E-5,-.103E-5,0
GLOBALSTAR M091,2011-033C,2026-06-11T14:09:12.742848,12.62263782,.0000425,52.0001,258.9570,142.2500,321.9296,0,U,37741,999,68857,.36724E-4,-.97E-6,0
GLOBALSTAR M085,2011-033D,2026-06-11T09:35:08.297376,12.62263993,.0000143,52.0106,210.8231,206.4221,172.5457,0,U,37742,999,68906,.1305E-3,-.8E-6,0
GLOBALSTAR M081,2011-033E,2026-06-11T10:39:48.607776,12.62264894,.0000197,51.9937,213.1292,127.6445,335.1075,0,U,37743,999,68921,.14888E-3,-.77E-6,0
GLOBALSTAR M089,2011-033F,2026-06-11T07:22:05.001312,12.62267169,.0000347,51.9906,167.7065,96.5648,282.7473,0,U,37744,999,69004,.18299E-3,-.71E-6,0
GLOBALSTAR M084,2011-080A,2026-06-11T08:31:07.147776,12.62267475,.0001055,52.0025,35.0376,76.9248,100.2928,0,U,38040,999,66802,-.23779E-4,-.108E-5,0
GLOBALSTAR M080,2011-080B,2026-06-11T09:43:42.784320,12.62269313,.0000325,52.0078,36.6003,68.3627,108.0599,0,U,38041,999,66815,.17674E-4,-.101E-5,0
GLOBALSTAR M082,2011-080C,2026-06-11T17:16:31.780992,12.62269967,.0000534,52.0098,351.1434,90.1443,6.0682,0,U,38042,999,66890,.69107E-4,-.91E-6,0
GLOBALSTAR M092,2011-080D,2026-06-11T13:16:04.435968,12.62266922,.0000602,52.0089,82.0478,55.2301,120.7651,0,U,38043,999,66733,-.40952E-4,-.111E-5,0
GLOBALSTAR M090,2011-080E,2026-06-11T15:54:38.276064,12.62269011,.0000809,52.0143,345.2705,84.1871,352.3927,0,U,38044,999,66901,.4358E-4,-.96E-6,0
GLOBALSTAR M086,2011-080F,2026-06-11T16:27:08.649792,12.62286661,.0001652,51.9914,345.1407,58.1758,21.6449,0,U,38045,999,66896,.10661E-3,-.85E-6,0
GLOBALSTAR M097,2013-005A,2026-06-11T12:58:38.817120,12.62247179,.0000401,52.0050,260.5247,125.4277,234.6627,0,U,39072,999,61619,.26173E-4,-.99E-6,0
GLOBALSTAR M093,2013-005B,2026-06-11T12:20:11.710752,12.62265790,.000027,52.0105,253.9508,105.8627,254.2270,0,U,39073,999,61614,.58383E-4,-.93E-6,0
GLOBALSTAR M094,2013-005C,2026-06-11T06:37:59.639808,12.62268589,.0000255,51.9930,168.7959,344.7640,15.3219,0,U,39074,999,61772,.11761E-3,-.83E-6,0
GLOBALSTAR M096,2013-005D,2026-06-11T10:45:25.695648,12.62265487,.0000125,52.0056,217.0709,175.8120,184.2747,0,U,39075,999,61666,.13649E-3,-.79E-6,0
GLOBALSTAR M078,2013-005E,2026-06-11T15:48:36.398304,12.62258445,.0000549,51.9889,300.4455,206.7112,153.3726,0,U,39076,999,61531,-.4428E-3,-.183E-5,0
GLOBALSTAR M095,2013-005F,2026-06-11T16:27:09.043776,12.62263363,.0000334,52.0095,297.9607,125.3628,234.7270,0,U,39077,999,61517,-.7906E-6,-.104E-5,0
GLOBALSTAR M087,2022-064A,2026-06-11T11:04:10.714368,12.62268957,.0000651,52.0000,79.8844,25.9213,334.1686,0,U,52888,999,19041,-.42513E-4,-.111E-5,0
